[Satellite]
VERSION=1.1
NAME=SL-3 R/B
NICKNAME=SL-3 R/B
TLE1=1 12904U 81103B   17186.25873172  .00000437  00000-0  28720-4 0  9994
TLE2=2 12904  81.1771 254.9250 0028694   8.4596 351.7104 15.05288183495326
